BEIDOU 3 (C01)          
1 36287U 10001A   22211.58375435 -.00000278  00000+0  00000+0 0  9992
2 36287   1.9547  49.3275 0003830  35.0253 214.4447  1.00270595 45943
BEIDOU 5 (C06)          
1 36828U 10036A   22211.46463390 -.00000113  00000+0  00000+0 0  9994
2 36828  54.2007 175.8342 0030742 190.7123 215.8570  1.00286552 44012
BEIDOU 6 (C04)          
1 37210U 10057A   22211.05516207 -.00000111  00000+0  00000+0 0  9992
2 37210   0.9254  52.0659 0005105 131.4185 303.9295  1.00270411 43066
BEIDOU 7 (C07)          
1 37256U 10068A   22211.12490043 -.00000169  00000+0  00000+0 0  9994
2 37256  50.1361 289.1400 0023213 198.9683 330.7797  1.00293856 42578
BEIDOU 8 (C08)          
1 37384U 11013A   22211.53622179 -.00000154  00000+0  00000+0 0  9993
2 37384  60.3552  53.8285 0022678 177.0875  16.0646  1.00295894 41454
BEIDOU 9 (C09)          
1 37763U 11038A   22211.36012931 -.00000068  00000+0  00000+0 0  9995
2 37763  54.4841 178.3316 0099046 228.3881 126.6395  1.00271981 40424
BEIDOU 10 (C10)         
1 37948U 11073A   22211.12678932 -.00000126  00000+0  00000+0 0  9997
2 37948  50.2524 288.7828 0084988 218.2554 301.7416  1.00284777 39187
BEIDOU 11 (C05)         
1 38091U 12008A   22211.18590865  .00000058  00000+0  00000+0 0  9993
2 38091   1.6556  68.5651 0014091 341.7928  23.1121  1.00276716 38265
BEIDOU 12 (C11)         
1 38250U 12018A   22211.35995491 -.00000086  00000+0  00000+0 0  9996
2 38250  56.6828 352.1427 0020730 250.1292 287.4465  1.86234277 69889
BEIDOU 13 (C12)         
1 38251U 12018B   22211.30584817 -.00000087  00000+0  00000+0 0  9999
2 38251  56.5994 351.4667 0011524 250.0801 295.4144  1.86234099 69882
BEIDOU 15 (C14)         
1 38775U 12050B   22210.53447591 -.00000016  00000+0  00000+0 0  9999
2 38775  55.4236 110.2690 0014095 327.8528 256.5764  1.86231368 67242
BEIDOU 16 (C02)         
1 38953U 12059A   22211.50071316 -.00000175  00000+0  00000+0 0  9998
2 38953   2.0916  84.2314 0010388 305.1815 182.9876  1.00274858 35692
BEIDOU 17 (C31)         
1 40549U 15019A   22211.62272056 -.00000164  00000+0  00000+0 0  9996
2 40549  51.8134 312.2560 0037505 194.4242 120.3160  1.00288187 26861
BEIDOU 18 (C57)         
1 40748U 15037A   22211.59970669 -.00000086  00000+0  00000+0 0  9991
2 40748  55.8511 350.2965 0003644  56.8847 234.9948  1.86233330 47712
BEIDOU 19 (C58)         
1 40749U 15037B   22210.92131494 -.00000090  00000+0  00000+0 0  9998
2 40749  55.8541 350.3097 0002559 353.7440 337.6442  1.86232154 47695
BEIDOU 20 (C18)         
1 40938U 15053A   22211.12330437 -.00000095  00000+0  00000+0 0  9992
2 40938  51.4327 275.3846 0046149 198.2192 334.5533  1.00283673 25125
BEIDOU IGSO-6 (C13)     
1 41434U 16021A   22211.26588757 -.00000135  00000+0  00000+0 0  9990
2 41434  58.1619  52.3896 0043807 215.9541 231.4635  1.00274729 23269
BEIDOU-2 G7 (C03)       
1 41586U 16037A   22211.50603237 -.00000352  00000+0  00000+0 0  9994
2 41586   1.4654  66.6280 0008188   0.5039 173.6906  1.00268957 22572
BEIDOU-3 M1 (C19)       
1 43001U 17069A   22210.90253635 -.00000012  00000+0  00000+0 0  9993
2 43001  55.5761 110.2627 0010330 298.0960 329.4074  1.86231739 32182
BEIDOU-3 M2 (C20)       
1 43002U 17069B   22211.24857279 -.00000009  00000+0  00000+0 0  9992
2 43002  55.5756 110.2868 0008792 320.1698 222.2999  1.86231306 32184
BEIDOU-3 M3 (C27)       
1 43107U 18003A   22211.25813278 -.00000089  00000+0  00000+0 0  9997
2 43107  55.3026 351.2065 0005162  67.3824 287.6852  1.86232497 30940
BEIDOU-3 M4 (C28)       
1 43108U 18003B   22211.16248056 -.00000090  00000+0  00000+0 0  9996
2 43108  55.2956 351.1987 0002181 232.1354 102.4542  1.86230923 30944
BEIDOU-3 M5 (C21)       
1 43207U 18018A   22210.03440871 -.00000021  00000+0  00000+0 0  9990
2 43207  55.5350 110.4048 0006440 343.2713  16.7520  1.86231639 30313
BEIDOU-3 M6 (C22)       
1 43208U 18018B   22211.17498107 -.00000010  00000+0  00000+0 0  9990
2 43208  55.5354 110.3714 0008465 310.0372  49.9409  1.86231528 30332
BEIDOU-3 M7 (C29)       
1 43245U 18029A   22210.92501538 -.00000091  00000+0  00000+0 0  9997
2 43245  55.2141 348.9842 0001027 110.0433 292.1382  1.86232659 29480
BEIDOU-3 M8 (C30)       
1 43246U 18029B   22210.84904597 -.00000091  00000+0  10000-3 0  9996
2 43246  55.2118 349.0162 0003647  14.7101  23.1026  1.86232867 29471
BEIDOU IGSO-7 (C16)     
1 43539U 18057A   22211.32271627 -.00000118  00000+0  00000+0 0  9992
2 43539  55.0925 175.3519 0052876 229.1306 130.8925  1.00297583 14945
BEIDOU-3 M9 (C23)       
1 43581U 18062A   22210.59427465  .00000066  00000+0  00000+0 0  9997
2 43581  54.2660 230.6429 0005723 268.4423 169.6923  1.86231908 27214
BEIDOU-3 M10 (C24)      
1 43582U 18062B   22210.48652196  .00000066  00000+0  00000+0 0  9997
2 43582  54.2659 230.6348 0004582 334.3561 123.3503  1.86232363 27218
BEIDOU-3 M11 (C25)      
1 43602U 18067A   22211.39289902  .00000066  00000+0  00000+0 0  9997
2 43602  54.3476 229.2226 0006559   0.5394  26.1940  1.86231618 26722
BEIDOU-3 M12 (C26)      
1 43603U 18067B   22210.94702021  .00000066  00000+0  00000+0 0  9990
2 43603  54.3447 229.2039 0003952 341.9931  16.1652  1.86231611 26728
BEIDOU-3 M13 (C32)      
1 43622U 18072A   22211.23337176 -.00000010  00000+0  00000+0 0  9995
2 43622  55.5024 109.9177 0006736 296.0170 283.2914  1.86231845 26242
BEIDOU-3 M14 (C33)      
1 43623U 18072B   22210.63259394 -.00000015  00000+0  00000+0 0  9999
2 43623  55.5047 109.9298 0005416 321.2570 305.4980  1.86231831 26235
BEIDOU-3 M15 (C34)      
1 43647U 18078A   22211.45975610 -.00000088  00000+0  10000-3 0  9993
2 43647  55.1091 349.1210 0005820  15.3505 341.5740  1.86233174 25759
BEIDOU-3 M16 (C35)      
1 43648U 18078B   22211.32704723 -.00000089  00000+0  00000+0 0  9991
2 43648  55.1054 349.1312 0004194  32.9285 142.7243  1.86232282 25775
BEIDOU-3 G1 (C59)       
1 43683U 18085A   22211.51187479 -.00000277  00000+0  00000+0 0  9991
2 43683   0.9333 159.1186 0004489  12.7546 100.4904  1.00267398 13845
BEIDOU-3 M17 (C36)      
1 43706U 18093A   22210.67915579  .00000066  00000+0  00000+0 0  9997
2 43706  54.3484 230.5268 0011287 272.4123  87.5110  1.86232078 25125
BEIDOU-3 M18 (C37)      
1 43707U 18093B   22211.61230153  .00000066  00000+0  00000+0 0  9991
2 43707  54.3477 230.4859 0009109 293.7312  63.0754  1.86232197 25124
BEIDOU-3 IGSO-1 (C38)   
1 44204U 19023A   22210.77385733 -.00000193  00000+0  00000+0 0  9991
2 44204  56.6205  52.5143 0022372 188.4333 102.1991  1.00297209 12136
BEIDOU-2 G8             
1 44231U 19027A   22211.58453916 -.00000245  00000+0  00000+0 0  9992
2 44231   0.9627  77.7959 0005361 110.8492 114.5278  1.00271185 11852
BEIDOU-3 IGSO-2 (C39)   
1 44337U 19035A   22210.80674337 -.00000130  00000+0  00000+0 0  9997
2 44337  55.1284 171.3477 0025952 194.5494 349.8913  1.00291946 11479
BEIDOU-3 M23 (C45)      
1 44542U 19061A   22210.61522091  .00000066  00000+0  00000+0 0  9999
2 44542  54.5747 230.6791 0008476 323.9887  36.0077  1.86231447 19375
BEIDOU-3 M24 (C46)      
1 44543U 19061B   22211.55743668  .00000066  00000+0  00000+0 0  9999
2 44543  54.5717 230.6169 0006054 307.5970 235.4741  1.86231685 19381
BEIDOU-3 IGSO-3         
1 44709U 19073A   22210.63452159 -.00000165  00000+0  10000-3 0  9992
2 44709  57.1977 295.9485 0027452 178.1603 179.2323  1.00295885 10219
BEIDOU-3 M21            
1 44793U 19078A   22210.99115163 -.00000091  00000+0  10000-3 0  9998
2 44793  54.9587 349.1539 0006056  23.1991 333.3643  1.86232277 18230
BEIDOU-3 M22            
1 44794U 19078B   22211.12518152 -.00000090  00000+0  00000+0 0  9994
2 44794  54.9316 349.1394 0003854  23.3829 334.7799  1.86232721 18236
BEIDOU-3 M19            
1 44864U 19090A   22210.76713407 -.00000014  00000+0  00000+0 0  9991
2 44864  55.4374 110.1422 0016893 274.0766  38.4671  1.86231953 17810
BEIDOU-3 M20            
1 44865U 19090B   22211.39453559 -.00000009  00000+0  00000+0 0  9995
2 44865  55.4394 110.1532 0015222 288.6059 174.4418  1.86231916 17804
BEIDOU-3 G2             
1 45344U 20017A   22211.49992836 -.00000137  00000+0  00000+0 0  9998
2 45344   2.0403 354.1567 0004854 128.3827  85.6056  1.00272463  9042
BEIDOU-3 G3             
1 45807U 20040A   22211.50594517 -.00000350  00000+0  00000+0 0  9991
2 45807   1.3467 304.3731 0006971 327.6562 328.6668  1.00265827  7852
